{
    "links": {
        "self": "http://www.neowsapp.com/rest/v1/neo/3545901?api_key=iIulBulltgU6a56xZRHN4H3l9WmuAYTsLGpBGhQ2"
    },
    "id": "3545901",
    "neo_reference_id": "3545901",
    "name": "(2010 RK53)",
    "designation": "2010 RK53",
    "nasa_jpl_url": "http://ssd.jpl.nasa.gov/sbdb.cgi?sstr=3545901",
    "absolute_magnitude_h": 27.9,
    "estimated_diameter": {
        "kilometers": {
            "estimated_diameter_min": 0.0069912523,
            "estimated_diameter_max": 0.0156329154
        },
        "meters": {
            "estimated_diameter_min": 6.9912523225,
            "estimated_diameter_max": 15.6329154409
        },
        "miles": {
            "estimated_diameter_min": 0.0043441614,
            "estimated_diameter_max": 0.0097138403
        },
        "feet": {
            "estimated_diameter_min": 22.9371802696,
            "estimated_diameter_max": 51.289094295
        }
    },
    "is_potentially_hazardous_asteroid": false,
    "close_approach_data": [
        {
            "close_approach_date": "2000-12-27",
            "close_approach_date_full": "2000-Dec-27 22:45",
            "epoch_date_close_approach": 977957100000,
            "relative_velocity": {
                "kilometers_per_second": "6.9238527433",
                "kilometers_per_hour": "24925.8698759705",
                "miles_per_hour": "15487.966201544"
            },
            "miss_distance": {
                "astronomical": "0.0791561146",
                "lunar": "30.7917285794",
                "kilometers": "11841586.141635902",
                "miles": "7358020.4324713676"
            },
            "orbiting_body": "Mars"
        },
        {
            "close_approach_date": "2010-09-08",
            "close_approach_date_full": "2010-Sep-08 14:21",
            "epoch_date_close_approach": 1283955660000,
            "relative_velocity": {
                "kilometers_per_second": "8.8960258182",
                "kilometers_per_hour": "32025.6929454641",
                "miles_per_hour": "19899.5201526969"
            },
            "miss_distance": {
                "astronomical": "0.0010510535",
                "lunar": "0.4088598115",
                "kilometers": "157235.364856045",
                "miles": "97701.525241621"
            },
            "orbiting_body": "Moon"
        },
        {
            "close_approach_date": "2010-09-08",
            "close_approach_date_full": "2010-Sep-08 23:58",
            "epoch_date_close_approach": 1283990280000,
            "relative_velocity": {
                "kilometers_per_second": "8.8103344102",
                "kilometers_per_hour": "31717.2038766241",
                "miles_per_hour": "19707.8370421168"
            },
            "miss_distance": {
                "astronomical": "0.0004824397",
                "lunar": "0.1876690433",
                "kilometers": "72171.951523439",
                "miles": "44845.5711598982"
            },
            "orbiting_body": "Earth"
        }
    ],
    "orbital_data": {
        "orbit_id": "7",
        "orbit_determination_date": "2017-04-06 08:56:46",
        "first_observation_date": "2010-09-10",
        "last_observation_date": "2010-09-17",
        "data_arc_in_days": 7,
        "observations_used": 21,
        "orbit_uncertainty": "8",
        "minimum_orbit_intersection": "6.91401E-5",
        "jupiter_tisserand_invariant": "4.822",
        "epoch_osculation": "2455453.5",
        "eccentricity": ".3140692187770893",
        "semi_major_axis": "1.34755440272413",
        "inclination": "6.100839922750496",
        "ascending_node_longitude": "346.1538783576512",
        "orbital_period": "571.3705972791763",
        "perihelion_distance": ".9243290442009351",
        "perihelion_argument": "310.8911904485014",
        "aphelion_distance": "1.770779761247324",
        "perihelion_time": "2455407.562680103753",
        "mean_anomaly": "28.94344798524625",
        "mean_motion": ".6300639229849994",
        "equinox": "J2000",
        "orbit_class": {
            "orbit_class_type": "APO",
            "orbit_class_description": "Near-Earth asteroid orbits which cross the Earth’s orbit similar to that of 1862 Apollo",
            "orbit_class_range": "a (semi-major axis) > 1.0 AU; q (perihelion) < 1.017 AU"
        }
    },
    "is_sentry_object": false
}